AEROCUBE 4.5A           
1 38767U 12048K   24016.59820924  .00010375  00000+0  65119-3 0  9998
2 38767  64.6624  82.7834 0103350  74.7999 286.4520 15.05339492237460
AEROCUBE 4.5B           
1 38768U 12048L   24016.34165793  .00026715  00000+0  12824-2 0  9997
2 38768  64.6634  18.5383 0082568  64.3167 296.6453 15.15782795238195
STRAND-1                
1 39090U 13009E   24016.46913232  .00000774  00000+0  28170-3 0  9995
2 39090  98.3799 208.9569 0008783 355.7303   4.3806 14.35850226570323
BRITE-AUSTRIA           
1 39091U 13009F   24016.49024517  .00000503  00000+0  18910-3 0  9999
2 39091  98.3835 208.2341 0010397   1.8389 358.2834 14.35655665570358
BEESAT-2                
1 39136U 13015G   24016.76902480  .00595387  00000+0  19902-2 0  9990
2 39136  64.8497 339.2088 0006564 264.6302  95.4110 15.88466973595364
NEE-01 PEGASO           
1 39151U 13018B   24016.80077670  .00005673  00000+0  68081-3 0  9996
2 39151  98.0217 132.7658 0015678 172.5011 187.6441 14.84333498579362
ESTCUBE 1               
1 39161U 13021C   24016.73028101  .00003410  00000+0  50894-3 0  9998
2 39161  97.8488  87.8184 0009243  10.8972 349.2436 14.75413669574640
POPACS 1                
1 39268U 13055D   24016.27873436  .00032015  00000+0  63263-3 0  9998
2 39268  80.9886 325.1131 0449960 219.9594 136.7696 14.81114400537823
POPACS 2                
1 39269U 13055E   24016.49094671  .00018620  00000+0  44693-3 0  9991
2 39269  81.0041  44.3917 0577695  66.7674 299.3257 14.50400747533413
POPACS 3                
1 39270U 13055F   24016.62776204  .00017203  00000+0  48667-3 0  9998
2 39270  81.0097  90.1590 0644449 195.1763 162.9270 14.32866601531783
ZACUBE-1 (TSHEPISOSAT)  
1 39417U 13066B   24016.42247316  .00008772  00000+0  95771-3 0  9997
2 39417  97.7156 336.2567 0051325 306.5211  53.1284 14.87165809548860
WNISAT-1                
1 39423U 13066H   24016.55664362  .00001628  00000+0  32031-3 0  9995
2 39423  97.6780 223.2109 0172300 128.0117 233.6780 14.54757240538455
TRITON-1                
1 39427U 13066M   24016.78567336  .00004468  00000+0  65097-3 0  9990
2 39427  97.8426 299.8611 0104169 211.7201 147.7704 14.72660790543963
DELFI-N3XT              
1 39428U 13066N   24016.34139373  .00008920  00000+0  12055-2 0  9991
2 39428  97.8392 299.0414 0104191 222.5784 136.7315 14.75521046543532
GOMX-1                  
1 39430U 13066Q   24016.80065799  .00004249  00000+0  72208-3 0  9992
2 39430  97.7539 260.3223 0143251  17.3067 343.2947 14.63052277540759
CUBEBUG-2 (LO-74)       
1 39440U 13066AA  24016.82981602  .00006900  00000+0  84733-3 0  9997
2 39440  97.7985 324.1654 0073903  52.3369 308.4517 14.81420357546965
NEE-02 KRYSAOR          
1 39441U 13066AB  24016.38733365  .00004848  00000+0  63309-3 0  9995
2 39441  97.8088 320.1085 0077714  72.6903 288.2791 14.78818962545347
FUNCUBE-1 (AO-73)       
1 39444U 13066AE  24016.84500123  .00010445  00000+0  10787-2 0  9994
2 39444  97.7015 339.4737 0048697 287.5970  71.9932 14.89451678548004
UWE-3                   
1 39446U 13066AG  24016.84394708  .00007730  00000+0  89959-3 0  9997
2 39446  97.7638 330.2508 0063001   1.2218 358.9139 14.84120774546688
BRITE-CA1 (TORONTO)     
1 40020U 14033L   24016.38424491  .00003158  00000+0  52228-3 0  9993
2 40020  97.8519 159.1953 0083318 219.3457 140.1677 14.68733534512439
DUCHIFAT-1              
1 40021U 14033M   24016.48457495  .00017231  00000+0  12984-2 0  9996
2 40021  98.0760 353.2202 0012567 255.8438 104.1389 15.02490944521161
NANOSATC-BR1            
1 40024U 14033Q   24016.45749682  .00014297  00000+0  11628-2 0  9991
2 40024  98.0598 342.7986 0007642 311.0824  48.9738 14.99654536520332
QB50P1                  
1 40025U 14033R   24016.81242294  .00010525  00000+0  92255-3 0  9995
2 40025  98.0236 333.1042 0009111 311.8482  48.1960 14.96823779520579
QB50P2                  
1 40032U 14033Y   24016.39543544  .00010000  00000+0  90010-3 0  9993
2 40032  97.9909 325.3160 0008684 312.4829  47.5657 14.95800152519812
PERSEUS-M2              
1 40037U 14033AD  24016.78207673  .00003088  00000+0  32982-3 0  9993
2 40037  97.9195 307.2378 0013145 344.1786  15.9018 14.89490271519636
PERSEUS-M1              
1 40039U 14033AF  24016.78136278  .00003511  00000+0  37674-3 0  9991
2 40039  97.9020 303.7116 0012938 343.6209  16.4588 14.89208171519509
POLYITAN-1              
1 40042U 14033AJ  24016.83791774  .00013872  00000+0  11605-2 0  9995
2 40042  98.0370 335.7533 0009922 304.3689  55.6594 14.98559684520508
TIGRISAT                
1 40043U 14033AK  24016.43983715  .00003911  00000+0  53707-3 0  9993
2 40043  97.6764 186.0603 0057772  80.8564 279.9178 14.77750100514897
AEROCUBE 6A             
1 40045U 14033AM  24016.42739374  .00007660  00000+0  96790-3 0  9998
2 40045  97.6584 196.3030 0053573  62.8061 297.8599 14.81114177515164
AEROCUBE 6B             
1 40046U 14033AN  24016.48279058  .00007756  00000+0  96199-3 0  9992
2 40046  97.6540 194.9414 0052153  58.8138 301.8173 14.81934830515216
UKUBE-1                 
1 40074U 14037F   24016.73521681  .00009515  00000+0  96670-3 0  9996
2 40074  98.3406 297.7090 0003107 188.4967 171.6197 14.91045251516045
BRITE-PL2 (HEWELIUSZ)   
1 40119U 14049B   24016.53455129  .00003880  00000+0  42997-3 0  9992
2 40119  97.8811 117.0880 0016976 143.2738 216.9645 14.87776588509876
GRIFEX                  
1 40379U 15003D   24016.51070118  .00277942  00000+0  14775-2 0  9994
2 40379  99.0821  15.1714 0031839 233.9177 125.9135 15.78985564496518
CP10 (EXOCUBE)          
1 40380U 15003E   24016.46272954  .00072395  00000+0  11578-2 0  9995
2 40380  99.1013 359.2944 0064533 291.5706  67.8672 15.50498955495541
EXACTVIEW 9             
1 40936U 15052G   24006.07845669  .00002815  00000+0  28083-3 0  9991
2 40936   6.0026  75.6655 0010627 288.6842  71.2132 14.79620840447345
AEROCUBE 5C             
1 40965U 15058B   24016.55185430  .00004264  00000+0  43236-3 0  9993
2 40965  64.7715 109.5897 0178876 356.3824   3.5975 14.81052855234426
AEROCUBE 7              
1 40966U 15058C   24016.66766120  .00005463  00000+0  53509-3 0  9993
2 40966  64.7698 104.2323 0175257 356.0507   3.9204 14.82430112234503
VELOX-II                
1 41171U 15077F   24016.68108118  .00059869  00000+0  13343-2 0  9992
2 41171  14.9882 161.6180 0004327  22.7284 337.3232 15.41704466448087
HORYU-4                 
1 41340U 16012D   24016.79631250  .00013386  00000+0  75118-3 0  9993
2 41340  31.0027 245.3388 0010517 232.0847 127.8841 15.12099948435034
E-ST@R-II               
1 41459U 16025D   24016.74607144  .00091385  00000+0  13659-2 0  9994
2 41459  98.1530 247.4761 0069418  65.0194 295.8246 15.51891935425740
RAVAN                   
1 41849U 16067B   24016.45002318  .00016579  00000+0  10173-2 0  9993
2 41849  98.0522 185.7390 0014260 184.4212 175.6892 15.10122101392907
CELTEE 1                
1 41850U 16067C   24016.41612738  .00008011  00000+0  58177-3 0  9993
2 41850  98.0836 178.4951 0001162  43.7403 316.3913 15.04165374392444
OPTICUBE 04             
1 41851U 16067D   24016.39637042  .00005952  00000+0  46702-3 0  9998
2 41851  98.0474 175.2948 0015565 204.0573 155.9924 15.01250233392306
AEROCUBE 8D             
1 41852U 16067E   24016.44012727  .00010213  00000+0  72457-3 0  9994
2 41852  98.0902 177.9320 0004166 258.8111 101.2645 15.04959470392403
AEROCUBE 8C             
1 41853U 16067F   24016.38046293  .00010863  00000+0  77155-3 0  9994
2 41853  98.0706 176.8416 0008215 188.1266 171.9828 15.04876734392380
PROMETHEUS 2-1          
1 41854U 16067G   24016.41412239  .00021481  00000+0  12816-2 0  9996
2 41854  98.0862 182.0513 0014059 215.8323 144.1963 15.11084529392626
PROMETHEUS 2-3          
1 41855U 16067H   24016.40930357  .00020713  00000+0  12374-2 0  9998
2 41855  98.0785 181.6844 0011838 226.0671 133.9581 15.11071226392627
DIDO-2                  
1 42000U 17008BE  24016.61800024  .00059299  00000+0  91995-3 0  9995
2 42000  97.1697  75.7192 0004395 352.8471   7.2720 15.53793555384909
AALTO-1                 
1 42775U 17036L   24016.61497252  .00043811  00000+0  85042-3 0  9999
2 42775  97.1287  46.7912 0009164  58.0449 302.1691 15.47482184365381
URSA MAIOR              
1 42776U 17036M   24016.64450522  .00056946  00000+0  92519-3 0  9992
2 42776  97.1282  49.1343 0007750  50.5744 309.6194 15.52497171365520
DIAMOND RED             
1 42783U 17036U   24016.64305974  .00095841  00000+0  11236-2 0  9993
2 42783  97.1199  53.8999 0006020  56.7626 303.4209 15.61178315365839
DIAMOND GREEN           
1 42785U 17036W   24016.07382077  .00133898  00000+0  12921-2 0  9998
2 42785  97.1164  54.2099 0005253  55.4926 304.6830 15.66041578365877
DIAMOND BLUE            
1 42786U 17036X   24016.59181200  .00107453  00000+0  11595-2 0  9995
2 42786  97.1207  54.3205 0005622  50.1405 310.0348 15.63288603365920
CICERO 6                
1 42793U 17036AE  24016.79446847  .00064759  00000+0  96012-3 0  9995
2 42793  97.1192  53.1315 0006376  50.6064 309.5755 15.55008140365891
CORVUS BC2              
1 42846U 17042X   24016.51496025  .00005122  00000+0  45859-3 0  9996
2 42846  97.3721 210.2744 0007726 208.1335 151.9471 14.96211209354600
CORVUS BC1              
1 42847U 17042Y   24016.49107321  .00006228  00000+0  55468-3 0  9997
2 42847  97.3727 210.6300 0007382 202.2620 157.8283 14.96344323354610
MIRATA                  
1 43015U 17073C   24016.63365879  .00023079  00000+0  12437-2 0  9990
2 43015  97.6072 263.8555 0193016  59.0878 302.9164 15.00146176333406
MAKERSAT 0              
1 43016U 17073D   24016.63156894  .00013146  00000+0  80521-3 0  9990
2 43016  97.6040 260.1895 0212094  74.1907 288.2585 14.93399922333108
